NORAD_CAT_ID,OBJECT_NAME,OBJECT_TYPE,EPOCH,MEAN_MOTION,ECCENTRICITY,INCLINATION,RA_OF_ASC_NODE,ARG_OF_PERICENTER,MEAN_ANOMALY,BSTAR,MEAN_MOTION_DOT,MEAN_MOTION_DDOT,TLE_LINE0,TLE_LINE1,TLE_LINE2,SEMIMAJOR_AXIS,PERIOD,APOGEE,PERIGEE,DECAYED
55949.0,STARLINK-5899,PAYLOAD,2023-09-02 14:00:01,15.62496504,0.0003604,69.9997,66.4888,272.5785,104.5114,-0.011477,-0.00931349,0.0,0 STARLINK-5899,1 55949U 23037AM  23245.58334491 -.00931349  00000-0 -11477-1 0  9992,2 55949  69.9997  66.4888 0003604 272.5785 104.5114 15.62496504  5971,6758.585,92.16,382.886,378.015,0.0
55949.0,STARLINK-5899,PAYLOAD,2023-09-02 22:00:00,15.61803421,0.000363,69.9997,65.5622,279.6145,171.5035,-0.011028,-0.00876109,0.0,0 STARLINK-5899,1 55949U 23037AM  23245.91667824 -.00876109  00000-0 -11028-1 0  9992,2 55949  69.9997  65.5622 0003630 279.6145 171.5035 15.61803421  6026,6760.585,92.201,384.904,379.996,0.0
55949.0,STARLINK-5899,PAYLOAD,2023-09-03 14:00:01,15.60544556,0.0003444,69.9998,63.7122,270.7856,325.9811,-0.012493,-0.00938961,0.0,0 STARLINK-5899,1 55949U 23037AM  23246.58334491 -.00938961  00000-0 -12493-1 0  9999,2 55949  69.9998  63.7122 0003444 270.7856 325.9811 15.60544556 27172,6764.22,92.275,388.415,383.755,0.0
55949.0,STARLINK-5899,PAYLOAD,2023-09-04 14:00:01,15.58589278,0.0003573,70.0003,60.944,275.1957,174.2108,-0.013558,-0.00945045,0.0,0 STARLINK-5899,1 55949U 23037AM  23247.58334491 -.00945045  00000-0 -13558-1 0  9994,2 55949  70.0003  60.9440 0003573 275.1957 174.2108 15.58589278  5928,6769.876,92.391,394.16,389.322,0.0
55949.0,STARLINK-5899,PAYLOAD,2023-09-04 22:00:00,15.57885809,0.0003546,70.0001,60.023,280.109,238.6326,-0.012687,-0.00868184,0.0,0 STARLINK-5899,1 55949U 23037AM  23247.91667824 -.00868184  00000-0 -12687-1 0  9990,2 55949  70.0001  60.0230 0003546 280.1090 238.6326 15.57885809 27387,6771.914,92.433,396.18,391.378,0.0
55949.0,STARLINK-5899,PAYLOAD,2023-09-05 14:00:01,15.56630943,0.0003626,70.0004,58.1837,272.5651,22.4392,-0.014563,-0.00943164,0.0,0 STARLINK-5899,1 55949U 23037AM  23248.58334491 -.00943164  00000-0 -14563-1 0  9992,2 55949  70.0004  58.1837 0003626 272.5651  22.4392 15.56630943 27498,6775.553,92.507,399.875,394.961,0.0
55949.0,STARLINK-5899,PAYLOAD,2023-09-06 14:00:01,15.54672142,0.0003405,70.0003,55.4318,275.8786,217.6845,-0.015631,-0.00941502,0.0,0 STARLINK-5899,1 55949U 23037AM  23249.58334491 -.00941502  00000-0 -15631-1 0  9994,2 55949  70.0003  55.4318 0003405 275.8786 217.6845 15.54672142 27644,6781.243,92.624,405.417,400.799,0.0
55949.0,STARLINK-5899,PAYLOAD,2023-09-06 22:00:00,15.53981951,0.0003402,69.9998,54.5161,278.4418,279.7575,-0.014922,-0.00881972,0.0,0 STARLINK-5899,1 55949U 23037AM  23249.91667824 -.00881972  00000-0 -14922-1 0  9996,2 55949  69.9998  54.5161 0003402 278.4418 279.7575 15.53981951  6015,6783.251,92.665,407.423,402.808,0.0
55949.0,STARLINK-5899,PAYLOAD,2023-09-07 14:00:01,15.52714833,0.0003543,70.0003,52.6876,272.1285,52.9524,-0.016771,-0.00953892,0.0,0 STARLINK-5899,1 55949U 23037AM  23250.58334491 -.00953892  00000-0 -16771-1 0  9997,2 55949  70.0003  52.6876 0003543 272.1285  52.9524 15.52714833 27803,6786.94,92.741,411.21,406.401,0.0
55949.0,STARLINK-5899,PAYLOAD,2023-09-07 22:00:00,15.52002506,0.0003592,69.9999,51.7745,278.1742,109.2006,-0.015048,-0.00832247,0.0,0 STARLINK-5899,1 55949U 23037AM  23250.91667824 -.00832247  00000-0 -15048-1 0  9999,2 55949  69.9999  51.7745 0003592 278.1742 109.2006 15.52002506  6026,6789.017,92.783,413.321,408.443,0.0
55949.0,STARLINK-5899,PAYLOAD,2023-09-08 06:00:02,15.51219237,0.0003501,69.9999,50.8624,271.8306,177.1172,2.3945e-05,1.242e-05,0.0,0 STARLINK-5899,1 55949U 23037AM  23251.25002315  .00001242  00000-0  23945-4 0  9994,2 55949  69.9999  50.8624 0003501 271.8306 177.1172 15.51219237 27906,6791.302,92.83,415.545,410.79,0.0
55949.0,STARLINK-5899,PAYLOAD,2023-09-08 14:00:01,15.51249652,0.0003479,70.0,49.951,272.8634,236.9215,-0.00067036,-0.00039383,0.0,0 STARLINK-5899,1 55949U 23037AM  23251.58334491 -.00039383  00000-0 -67036-3 0  9990,2 55949  70.0000  49.9510 0003479 272.8634 236.9215 15.51249652  5771,6791.213,92.828,415.441,410.716,0.0
55949.0,STARLINK-5899,PAYLOAD,2023-09-08 22:00:00,15.51273727,0.0003405,69.9997,49.0395,276.2326,294.4727,-0.0022693,-0.0013151,0.0,0 STARLINK-5899,1 55949U 23037AM  23251.91667824 -.00131510  00000-0 -22693-2 0  9990,2 55949  69.9997  49.0395 0003405 276.2326 294.4727 15.51273727  5823,6791.143,92.827,415.321,410.696,0.0
55949.0,STARLINK-5899,PAYLOAD,2023-09-09 06:00:00,15.51242374,0.0003492,69.9999,48.1282,269.6639,1.9739,-0.015518,-0.00834855,0.0,0 STARLINK-5899,1 55949U 23037AM  23252.25001157 -.00834855  00000-0 -15518-1 0  9998,2 55949  69.9999  48.1282 0003492 269.6639   1.9739 15.51242374 28068,6791.235,92.829,415.471,410.728,0.0
55949.0,STARLINK-5899,PAYLOAD,2023-09-09 14:00:01,15.50664012,0.0003589,70.0,47.2173,272.1083,60.1001,-0.018153,-0.00958726,0.0,0 STARLINK-5899,1 55949U 23037AM  23252.58334491 -.00958726  00000-0 -18153-1 0  9996,2 55949  70.0000  47.2173 0003589 272.1083  60.1001 15.50664012  5927,6792.923,92.863,417.226,412.35,0.0
55949.0,STARLINK-5899,PAYLOAD,2023-09-09 22:00:00,15.49978486,0.0003604,69.9994,46.3071,277.7543,114.2786,-0.017313,-0.00885523,0.0,0 STARLINK-5899,1 55949U 23037AM  23252.91667824 -.00885523  00000-0 -17313-1 0  9993,2 55949  69.9994  46.3071 0003604 277.7543 114.2786 15.49978486 28166,6794.926,92.905,419.24,414.342,0.0
55949.0,STARLINK-5899,PAYLOAD,2023-09-10 14:00:01,15.48708131,0.0003406,70.0,44.4893,272.7196,236.5869,-0.019418,-0.00956998,0.0,0 STARLINK-5899,1 55949U 23037AM  23253.58334491 -.00956998  00000-0 -19418-1 0  9991,2 55949  70.0000  44.4893 0003406 272.7196 236.5869 15.48708131 28265,6798.641,92.981,422.822,418.191,0.0
55949.0,STARLINK-5899,PAYLOAD,2023-09-11 06:00:00,15.47339486,0.0003416,69.9997,42.6751,269.2154,354.2667,-0.018119,-0.00848019,0.0,0 STARLINK-5899,1 55949U 23037AM  23254.25001157 -.00848019  00000-0 -18119-1 0  9997,2 55949  69.9997  42.6751 0003416 269.2154 354.2667 15.47339486 28374,6802.65,93.063,426.838,422.191,0.0
55949.0,STARLINK-5899,PAYLOAD,2023-09-11 14:00:01,15.4675086,0.0003518,69.9999,41.7693,271.6702,47.6951,-0.020795,-0.00957183,0.0,0 STARLINK-5899,1 55949U 23037AM  23254.58334491 -.00957183  00000-0 -20795-1 0  9999,2 55949  69.9999  41.7693 0003518 271.6702  47.6951 15.46750860  5804,6804.375,93.098,428.634,423.847,0.0
55949.0,STARLINK-5899,PAYLOAD,2023-09-11 22:00:01,15.46077758,0.000349,69.9996,40.8644,277.882,96.6764,-0.020407,-0.00920804,0.0,0 STARLINK-5899,1 55949U 23037AM  23254.91668981 -.00920804  00000-0 -20407-1 0  9990,2 55949  69.9996  40.8644 0003490 277.8820  96.6764 15.46077758 28477,6806.35,93.139,430.591,425.84,0.0
55949.0,STARLINK-5899,PAYLOAD,2023-09-12 14:00:01,15.44789353,0.0003437,69.9999,39.0579,275.9007,206.55,-0.022153,-0.00953406,0.0,0 STARLINK-5899,1 55949U 23037AM  23255.58335648 -.00953406  00000-0 -22153-1 0  9999,2 55949  69.9999  39.0579 0003437 275.9007 206.5500 15.44789353  5951,6810.134,93.217,434.34,429.658,0.0
55949.0,STARLINK-5899,PAYLOAD,2023-09-12 22:00:00,15.44123547,0.0003369,69.9996,38.1557,279.1129,256.0517,-0.021992,-0.00927446,0.0,0 STARLINK-5899,1 55949U 23037AM  23255.91667824 -.00927446  00000-0 -21992-1 0  9995,2 55949  69.9996  38.1557 0003369 279.1129 256.0517 15.44123547 28623,6812.092,93.257,436.252,431.662,0.0
55949.0,STARLINK-5899,PAYLOAD,2023-09-13 14:00:01,15.42827339,0.0003546,70.0004,36.3543,274.45,3.9154,-0.023454,-0.00945096,0.0,0 STARLINK-5899,1 55949U 23037AM  23256.58334491 -.00945096  00000-0 -23454-1 0  9996,2 55949  70.0004  36.3543 0003546 274.4500   3.9154 15.42827339  6023,6815.906,93.335,440.188,435.355,0.0
55949.0,STARLINK-5899,PAYLOAD,2023-09-13 22:00:00,15.42164729,0.0003667,70.0,35.4548,278.4203,50.3738,-0.023384,-0.00923407,0.0,0 STARLINK-5899,1 55949U 23037AM  23256.91667824 -.00923407  00000-0 -23384-1 0  9996,2 55949  70.0000  35.4548 0003667 278.4203  50.3738 15.42164729  5910,6817.859,93.375,442.224,437.224,0.0
55949.0,STARLINK-5899,PAYLOAD,2023-09-14 06:00:00,15.41469347,0.0003549,70.0002,34.5562,273.0788,105.3736,-0.022004,-0.00854383,0.0,0 STARLINK-5899,1 55949U 23037AM  23257.25001157 -.00854383  00000-0 -22004-1 0  9999,2 55949  70.0002  34.5562 0003549 273.0788 105.3736 15.41469347 28834,6819.909,93.417,444.194,439.354,0.0
55949.0,STARLINK-5899,PAYLOAD,2023-09-14 14:00:01,15.40870501,0.0003551,70.0006,33.6587,276.9056,150.4605,-0.025055,-0.00945499,0.0,0 STARLINK-5899,1 55949U 23037AM  23257.58335648 -.00945499  00000-0 -25055-1 0  9998,2 55949  70.0006  33.6587 0003551 276.9056 150.4605 15.40870501  6028,6821.676,93.454,445.963,441.119,0.0
55949.0,STARLINK-5899,PAYLOAD,2023-09-14 20:00:01,15.40350273,0.0003615,70.0005,32.9859,279.5647,93.8795,-0.023772,-0.00886627,0.0,0 STARLINK-5899,1 55949U 23037AM  23257.83334491 -.00886627  00000-0 -23772-1 0  9992,2 55949  70.0005  32.9859 0003615 279.5647  93.8795 15.40350273 28929,6823.212,93.485,447.543,442.61,0.0
55949.0,STARLINK-5899,PAYLOAD,2023-09-14 22:00:00,15.40214308,0.0003454,70.0004,32.7618,281.173,194.2092,-0.025252,-0.00933426,0.0,0 STARLINK-5899,1 55949U 23037AM  23257.91667824 -.00933426  00000-0 -25252-1 0  9995,2 55949  70.0004  32.7618 0003454 281.1730 194.2092 15.40214308  6012,6823.613,93.493,447.835,443.121,0.0
55949.0,STARLINK-5899,PAYLOAD,2023-09-15 14:00:01,15.38902907,0.0003373,70.0008,30.9713,276.2972,292.9047,-0.026211,-0.00928281,0.0,0 STARLINK-5899,1 55949U 23037AM  23258.58334491 -.00928281  00000-0 -26211-1 0  9999,2 55949  70.0008  30.9713 0003373 276.2972 292.9047 15.38902907 29045,6827.489,93.573,451.657,447.051,0.0
55949.0,STARLINK-5899,PAYLOAD,2023-09-16 14:00:01,15.36946421,0.0003485,70.001,28.2922,275.4557,68.6019,-0.02791,-0.00927421,0.0,0 STARLINK-5899,1 55949U 23037AM  23259.58334491 -.00927421  00000-0 -27910-1 0  9992,2 55949  70.0010  28.2922 0003485 275.4557  68.6019 15.36946421  5930,6833.282,93.692,457.529,452.766,0.0
